[{"OBJECT_NAME":"IRIDIUM 134","OBJECT_ID":"2017-083F","EPOCH":"2026-03-09T21:58:07.186944","MEAN_MOTION":14.34217743,"ECCENTRICITY":0.00020775,"INCLINATION":86.4026,"RA_OF_ASC_NODE":3.549,"ARG_OF_PERICENTER":86.3687,"MEAN_ANOMALY":273.7747,"EPHEMERIS_TYPE":0,"CLASSIFICATION_TYPE":"U","NORAD_CAT_ID":43075,"ELEMENT_SET_NO":999,"REV_AT_EPOCH":42987,"BSTAR":2.4162884e-5,"MEAN_MOTION_DOT":8.7e-7,"MEAN_MOTION_DDOT":0},{"OBJECT_NAME":"FENGYUN 1C DEB","OBJECT_ID":"1999-025CPQ","EPOCH":"2026-03-08T21:15:42.510816","MEAN_MOTION":14.45718841,"ECCENTRICITY":0.00497,"INCLINATION":99.0485,"RA_OF_ASC_NODE":52.0484,"ARG_OF_PERICENTER":263.1686,"MEAN_ANOMALY":126.5874,"EPHEMERIS_TYPE":0,"CLASSIFICATION_TYPE":"U","NORAD_CAT_ID":31987,"ELEMENT_SET_NO":999,"REV_AT_EPOCH":97614,"BSTAR":0.0013675556,"MEAN_MOTION_DOT":4.869e-5,"MEAN_MOTION_DDOT":0}]
